{
  "norad_id": 63913,
  "name": "STARLINK-34070",
  "history": [
    {
      "epoch": "2026-05-06T14:14:04.480224Z",
      "apogee_km": 484.0756344819174,
      "perigee_km": 482.10234588713956,
      "latitude_deg": 3.811092309072754e-06,
      "longitude_deg": 131.21242087737323,
      "height_km": 482.9054418824558,
      "semi_major_axis_km": 6861.225990184528,
      "eccentricity": 0.0001438,
      "inclination_deg": 42.9997,
      "raan_deg": 209.1826,
      "arg_perigee_deg": 267.6906,
      "mean_anomaly_deg": 92.3781,
      "mean_motion_rev_day": 15.27566677
    },
    {
      "epoch": "2026-05-07T12:12:15.831648Z",
      "apogee_km": 483.94784597909256,
      "perigee_km": 482.08435679675586,
      "latitude_deg": -2.107020863101429e-06,
      "longitude_deg": 155.59294521582075,
      "height_km": 482.81735893401725,
      "semi_major_axis_km": 6861.153101387924,
      "eccentricity": 0.0001358,
      "inclination_deg": 42.9992,
      "raan_deg": 204.0127,
      "arg_perigee_deg": 268.4819,
      "mean_anomaly_deg": 91.5877,
      "mean_motion_rev_day": 15.27591019
    }
  ]
}